LEMUR-2-ROUNDTRIPPER    
1 62711U 25009DG  26166.16407852  .00007431  00000+0  54531-3 0  9992
2 62711  97.7260 248.8457 0005130 136.8305 223.3323 15.03763626 77329
LEMUR-2-MYNAMEISJEFF    
1 62712U 25009DH  26166.16249699  .00006800  00000+0  49941-3 0  9994
2 62712  97.7307 249.2241 0003347 158.1904 201.9465 15.03771410 77327
LEMUR-2-LEIA-PHILIP     
1 63246U 25052AN  26166.13169272  .00001184  00000+0  10707-3 0  9998
2 63246  97.6845  58.1173 0002361 215.8850 144.2214 14.97315872 68366
LEMUR-2-LIA-MARTIN      
1 63248U 25052AQ  26165.93698775  .00003775  00000+0  32633-3 0  9992
2 63248  97.6910  58.3980 0002772 159.0213 201.1124 14.97791500 68344
LEMUR-2-DELOITTE-1      
1 63259U 25052BB  26166.18033876  .00003737  00000+0  32483-3 0  9998
2 63259  97.6924  58.9659 0003303 101.4838 258.6755 14.97589119 68398
LEMUR-2-EMERSONROSE     
1 63261U 25052BD  26166.15748544  .00003032  00000+0  25464-3 0  9992
2 63261  97.6894  59.4988 0001851  66.8748 293.2670 14.99067505 68436
LEMUR-2-MARACHE-FRAN    
1 63262U 25052BE  26166.13419348  .00005125  00000+0  41580-3 0  9990
2 63262  97.6952  59.7875 0005584  30.3529 329.8017 15.00085585 68454
LEMUR-2-THEFALCONER     
1 63264U 25052BG  26165.67182984  .00002830  00000+0  24853-3 0  9997
2 63264  97.6879  58.0891 0002991  41.4693 318.6755 14.97377020 68311
LEMUR-2-UNTITLED-SC     
1 63351U 25061A   26166.17135866  .00003319  00000+0  18873-3 0  9995
2 63351  97.5630 141.5477 0016915 272.3793  87.5502 15.13463322 67284
LEMUR-2-ESPERANZA       
1 63352U 25061B   26166.21473213  .00004053  00000+0  22907-3 0  9991
2 63352  97.5639 141.6837 0016573 271.4480  88.4852 15.13557141 67290
LEMUR-2-KREMPEL-BRO2    
1 63353U 25061C   26166.17618144  .00003336  00000+0  18688-3 0  9995
2 63353  97.5687 142.1763 0017403 263.2056  96.7195 15.13993516 67303
LEMUR-2-THERMORAPTOR    
1 63354U 25061D   26166.15835596  .00003999  00000+0  22280-3 0  9994
2 63354  97.5691 142.2339 0017185 262.1996  97.7285 15.14071971 67301
LEMUR-2-NEUROSPICY      
1 63355U 25061E   26166.19626836  .00003831  00000+0  21306-3 0  9997
2 63355  97.5620 141.8994 0014999 266.0433  93.9084 15.14188740 67314
LEMUR-2-TILLINFINITY    
1 63356U 25061F   26166.16624050  .00003721  00000+0  20361-3 0  9999
2 63356  97.5602 142.1585 0016291 252.9080 107.0367 15.14772904 67338
LEMUR-2-KREMPEL-BRO1    
1 63357U 25061G   26166.20552024  .00004170  00000+0  22891-3 0  9995
2 63357  97.5605 142.1143 0016929 254.0544 105.8823 15.14580036 67334
LEMUR-2-LANGER2SPACE    
1 63358U 25061H   26165.96730806  .00004064  00000+0  22528-3 0  9993
2 63358  97.5607 141.6922 0014876 265.0068  94.9466 15.14274798 67288
LEMUR-2-BALTO           
1 63395U 25052BH  26165.98544806  .00005585  00000+0  45277-3 0  9994
2 63395  97.6898  59.6201 0006903  63.7049 296.4883 15.00066047 68435
LEMUR-2-KRISH           
1 64561U 25135AK  26166.06802920  .00005414  00000+0  48537-3 0  9999
2 64561  97.7745 280.9585 0001716 102.5248 257.6165 14.96190887 53606
LEMUR-2-HUBBLE-4        
1 64565U 25135AP  26166.12602345  .00001554  00000+0  15418-3 0  9992
2 64565  97.7697 280.0570 0001065 321.7351  38.3793 14.93191914 53563
LEMUR-2-SEJONG-2        
1 64586U 25135BL  26166.23240576  .00003135  00000+0  27976-3 0  9990
2 64586  97.7690 281.2666 0004014 347.6819  12.4304 14.96683666 53655
LEMUR-2-HUBBLE-5        
1 64840U 25135BT  26166.14835469  .00001390  00000+0  13531-3 0  9997
2 64840  97.7716 280.7097 0005256   1.5459 358.5776 14.94131327 53606
LEMUR-2-KARENDARRELL    
1 64841U 25135BU  26166.05035591  .00007303  00000+0  59000-3 0  9997
2 64841  97.7680 282.2616 0009530 210.4210 149.6462 15.00084915 53694
LEMUR-2-LUCILLE-ROSE    
1 65403U 25135BV  26165.55721797  .00006370  00000+0  51465-3 0  9996
2 65403  97.7771 281.7859 0010956 292.9349  67.0717 15.00126663 48243
LEMUR-2-AFFIE-WAUWIE    
1 66295U 25248C   26166.15863604  .00014524  00000+0  54635-3 0  9994
2 66295  45.3893 125.9769 0007617  70.2843 289.8867 15.27089116 34281
LEMUR-2-DEANANDMAEVE    
1 66678U 25276N   26166.14184358  .00006603  00000+0  31212-3 0  9996
2 66678  97.4218 239.6511 0005926  21.6090 338.5394 15.19713195 30104
LEMUR-2-STAS-GORBUK     
1 66686U 25276W   26166.15587719  .00005096  00000+0  24412-3 0  9993
2 66686  97.4253 239.7201 0005245  21.7605 338.3851 15.19361958 30108
LEMUR-2-TEODOR          
1 66768U 25276DG  26166.14188463  .00005757  00000+0  26244-3 0  9995
2 66768  97.4156 239.9399 0002099 117.6264 242.5185 15.21032247 30139
LEMUR-2-LAILA           
1 66776U 25276DQ  26166.18187389  .00004719  00000+0  21435-3 0  9998
2 66776  97.4180 240.0988 0002106 138.4415 221.6981 15.21252484 30140
LEMUR-2-CELIJO-SB-PK    
1 66781U 25276DW  26166.16868932  .00005677  00000+0  46115-3 0  9998
2 66781  97.5265 237.0118 0008876 137.4697 222.7216 14.99960172 22321
LEMUR-2-FINNIAN         
1 66782U 25276DX  26166.14621058  .00006445  00000+0  51746-3 0  9993
2 66782  97.5284 237.2022 0008850  95.4882 264.7352 15.00356381 19697
